start=new Date('2021-10-29T00:00:00.000Z').valueOf();
sats=[{"MEAN_MOTION_DOT":"0.00001083","EPHEMERIS_TYPE":"0","DECAY_DATE":null,"ECCENTRICITY":"0.00018690","TLE_LINE2":"2 48484  53.0543 152.0330 0001869  73.7133 286.4062 15.06398486 26277","RA_OF_ASC_NODE":"152.0330","MEAN_MOTION_DDOT":"0.0000000000000","OBJECT_ID":"2021-040BJ","REV_AT_EPOCH":"2627","FILE":"3189402","CLASSIFICATION_TYPE":"U","REF_FRAME":"TEME","OBJECT_TYPE":"PAYLOAD","GP_ID":"188368840","TLE_LINE1":"1 48484U 21040BJ  21301.87370717  .00001083  00000-0  91624-4 0  9990","SITE":"AFETR","MEAN_ELEMENT_THEORY":"SGP4","ARG_OF_PERICENTER":"73.7133","LAUNCH_DATE":"2021-05-09","MEAN_ANOMALY":"286.4062","SEMIMAJOR_AXIS":"6925.353","PERIOD":"95.592","EPOCH":"2021-10-28T20:58:08.299488","BSTAR":"0.00009162400000","MEAN_MOTION":"15.06398486","TIME_SYSTEM":"UTC","CENTER_NAME":"EARTH","PERIAPSIS":"545.924","RCS_SIZE":"LARGE","INCLINATION":"53.0543","APOAPSIS":"548.513","ELEMENT_SET_NO":"999","COUNTRY_CODE":"US","OBJECT_NAME":"STARLINK-2696","NORAD_CAT_ID":"48484"},{"ARG_OF_PERICENTER":"84.3874","MEAN_ELEMENT_THEORY":"SGP4","SITE":"AFETR","TLE_LINE1":"1 48485U 21040BK  21301.90414830  .00005823  00000-0  40957-3 0  9998","GP_ID":"188369070","CLASSIFICATION_TYPE":"U","REF_FRAME":"TEME","OBJECT_TYPE":"PAYLOAD","FILE":"3189402","REV_AT_EPOCH":"2627","MEAN_MOTION_DDOT":"0.0000000000000","TLE_LINE2":"2 48485  53.0544 151.9044 0001925  84.3874 275.7334 15.06395007 26271","RA_OF_ASC_NODE":"151.9044","OBJECT_ID":"2021-040BK","DECAY_DATE":null,"ECCENTRICITY":"0.00019250","EPHEMERIS_TYPE":"0","MEAN_MOTION_DOT":"0.00005823","OBJECT_NAME":"STARLINK-2500","NORAD_CAT_ID":"48485","ELEMENT_SET_NO":"999","COUNTRY_CODE":"US","INCLINATION":"53.0544","APOAPSIS":"548.562","PERIAPSIS":"545.896","CENTER_NAME":"EARTH","RCS_SIZE":"LARGE","TIME_SYSTEM":"UTC","MEAN_MOTION":"15.06395007","BSTAR":"0.00040957000000","EPOCH":"2021-10-28T21:41:58.413120","PERIOD":"95.592","SEMIMAJOR_AXIS":"6925.364","MEAN_ANOMALY":"275.7334","LAUNCH_DATE":"2021-05-09"},{"EPHEMERIS_TYPE":"0","MEAN_MOTION_DOT":"-0.00000274","TLE_LINE2":"2 48486  53.0524 152.1805 0001875  76.9335 283.1863 15.06409127 26269","RA_OF_ASC_NODE":"152.1805","MEAN_MOTION_DDOT":"0.0000000000000","OBJECT_ID":"2021-040BL","REV_AT_EPOCH":"2626","DECAY_DATE":null,"ECCENTRICITY":"0.00018750","TLE_LINE1":"1 48486U 21040BL  21301.84148432 -.00000274  00000-0  51775-6 0  9993","GP_ID":"188368370","FILE":"3189402","CLASSIFICATION_TYPE":"U","REF_FRAME":"TEME","OBJECT_TYPE":"PAYLOAD","ARG_OF_PERICENTER":"76.9335","SITE":"AFETR","MEAN_ELEMENT_THEORY":"SGP4","MEAN_ANOMALY":"283.1863","LAUNCH_DATE":"2021-05-09","BSTAR":"0.00000051775000","SEMIMAJOR_AXIS":"6925.321","EPOCH":"2021-10-28T20:11:44.245248","PERIOD":"95.592","CENTER_NAME":"EARTH","PERIAPSIS":"545.887","RCS_SIZE":"LARGE","INCLINATION":"53.0524","APOAPSIS":"548.484","MEAN_MOTION":"15.06409127","TIME_SYSTEM":"UTC","OBJECT_NAME":"STARLINK-2496","NORAD_CAT_ID":"48486","ELEMENT_SET_NO":"999","COUNTRY_CODE":"US"},{"BSTAR":"0.00013781000000","SEMIMAJOR_AXIS":"6925.335","PERIOD":"95.592","EPOCH":"2021-10-28T20:17:02.344992","MEAN_ANOMALY":"274.6559","LAUNCH_DATE":"2021-05-09","OBJECT_NAME":"STARLINK-2494","NORAD_CAT_ID":"48487","ELEMENT_SET_NO":"999","COUNTRY_CODE":"US","PERIAPSIS":"545.928","CENTER_NAME":"EARTH","RCS_SIZE":"LARGE","INCLINATION":"53.0555","APOAPSIS":"548.471","MEAN_MOTION":"15.06404521","TIME_SYSTEM":"UTC","RA_OF_ASC_NODE":"152.1756","TLE_LINE2":"2 48487  53.0555 152.1756 0001836  85.4640 274.6559 15.06404521 26271","MEAN_MOTION_DDOT":"0.0000000000000","OBJECT_ID":"2021-040BM","REV_AT_EPOCH":"2627","DECAY_DATE":null,"ECCENTRICITY":"0.00018360","EPHEMERIS_TYPE":"0","MEAN_MOTION_DOT":"0.00001772","ARG_OF_PERICENTER":"85.4640","SITE":"AFETR","MEAN_ELEMENT_THEORY":"SGP4","TLE_LINE1":"1 48487U 21040BM  21301.84516603  .00001772  00000-0  13781-3 0  9998","GP_ID":"188368957","FILE":"3189402","CLASSIFICATION_TYPE":"U","OBJECT_TYPE":"PAYLOAD","REF_FRAME":"TEME"},{"LAUNCH_DATE":"2021-05-15","MEAN_ANOMALY":"283.8882","SEMIMAJOR_AXIS":"6925.336","EPOCH":"2021-10-28T18:08:20.114304","PERIOD":"95.592","BSTAR":"0.00006384700000","MEAN_MOTION":"15.06403998","TIME_SYSTEM":"UTC","CENTER_NAME":"EARTH","PERIAPSIS":"546.119","RCS_SIZE":"LARGE","INCLINATION":"53.0584","APOAPSIS":"548.284","ELEMENT_SET_NO":"999","COUNTRY_CODE":"US","OBJECT_NAME":"STARLINK-2063","NORAD_CAT_ID":"48553","MEAN_MOTION_DOT":"0.00000670","EPHEMERIS_TYPE":"0","DECAY_DATE":null,"ECCENTRICITY":"0.00015630","TLE_LINE2":"2 48553  53.0584  82.5736 0001563  76.2281 283.8882 15.06403998 25117","MEAN_MOTION_DDOT":"0.0000000000000","RA_OF_ASC_NODE":"82.5736","OBJECT_ID":"2021-041A","REV_AT_EPOCH":"2511","FILE":"3189402","CLASSIFICATION_TYPE":"U","OBJECT_TYPE":"PAYLOAD","REF_FRAME":"TEME","GP_ID":"188369078","TLE_LINE1":"1 48553U 21041A   21301.75578836  .00000670  00000-0  63847-4 0  9994","SITE":"AFETR","MEAN_ELEMENT_THEORY":"SGP4","ARG_OF_PERICENTER":"76.2281"},{"DECAY_DATE":null,"ECCENTRICITY":"0.00020550","TLE_LINE2":"2 48554  53.0568  81.9517 0002055  74.5912 285.5304 15.06395782 25130","MEAN_MOTION_DDOT":"0.0000000000000","RA_OF_ASC_NODE":"81.9517","OBJECT_ID":"2021-041B","REV_AT_EPOCH":"2513","MEAN_MOTION_DOT":"-0.00000470","EPHEMERIS_TYPE":"0","SITE":"AFETR","MEAN_ELEMENT_THEORY":"SGP4","ARG_OF_PERICENTER":"74.5912","FILE":"3189402","CLASSIFICATION_TYPE":"U","OBJECT_TYPE":"PAYLOAD","REF_FRAME":"TEME","TLE_LINE1":"1 48554U 21041B   21301.89586319 -.00000470  00000-0 -12665-4 0  9997","GP_ID":"188368378","SEMIMAJOR_AXIS":"6925.361","EPOCH":"2021-10-28T21:30:02.579616","PERIOD":"95.592","BSTAR":"-0.00001266500000","LAUNCH_DATE":"2021-05-15","MEAN_ANOMALY":"285.5304","ELEMENT_SET_NO":"999","COUNTRY_CODE":"US","OBJECT_NAME":"STARLINK-2139","NORAD_CAT_ID":"48554","MEAN_MOTION":"15.06395782","TIME_SYSTEM":"UTC","PERIAPSIS":"545.803","CENTER_NAME":"EARTH","RCS_SIZE":"LARGE","INCLINATION":"53.0568","APOAPSIS":"548.650"},{"LAUNCH_DATE":"2021-05-15","MEAN_ANOMALY":"272.1953","SEMIMAJOR_AXIS":"6925.332","PERIOD":"95.592","EPOCH":"2021-10-28T20:35:36.960288","BSTAR":"0.00014677000000","MEAN_MOTION":"15.06405558","TIME_SYSTEM":"UTC","RCS_SIZE":"LARGE","PERIAPSIS":"546.054","CENTER_NAME":"EARTH","APOAPSIS":"548.339","INCLINATION":"53.0549","COUNTRY_CODE":"US","ELEMENT_SET_NO":"999","NORAD_CAT_ID":"48555","OBJECT_NAME":"STARLINK-2145","MEAN_MOTION_DOT":"0.00001906","EPHEMERIS_TYPE":"0","ECCENTRICITY":"0.00016500","DECAY_DATE":null,"OBJECT_ID":"2021-041C","RA_OF_ASC_NODE":"92.1145","TLE_LINE2":"2 48555  53.0549  92.1145 0001650  87.9225 272.1953 15.06405558 24983","MEAN_MOTION_DDOT":"0.0000000000000","REV_AT_EPOCH":"2498","FILE":"3189402","REF_FRAME":"TEME","OBJECT_TYPE":"PAYLOAD","CLASSIFICATION_TYPE":"U","GP_ID":"188368965","TLE_LINE1":"1 48555U 21041C   21301.85806667  .00001906  00000-0  14677-3 0  9992","SITE":"AFETR","MEAN_ELEMENT_THEORY":"SGP4","ARG_OF_PERICENTER":"87.9225"},{"OBJECT_NAME":"STARLINK-2151","NORAD_CAT_ID":"48556","ELEMENT_SET_NO":"999","COUNTRY_CODE":"US","INCLINATION":"53.0565","APOAPSIS":"548.477","CENTER_NAME":"EARTH","PERIAPSIS":"545.917","RCS_SIZE":"LARGE","TIME_SYSTEM":"UTC","MEAN_MOTION":"15.06405436","BSTAR":"0.00015240000000","EPOCH":"2021-10-28T17:08:37.366368","PERIOD":"95.592","SEMIMAJOR_AXIS":"6925.332","MEAN_ANOMALY":"272.8191","LAUNCH_DATE":"2021-05-15","ARG_OF_PERICENTER":"87.3010","MEAN_ELEMENT_THEORY":"SGP4","SITE":"AFETR","GP_ID":"188368495","TLE_LINE1":"1 48556U 21041D   21301.71432137  .00001989  00000-0  15240-3 0  9993","CLASSIFICATION_TYPE":"U","REF_FRAME":"TEME","OBJECT_TYPE":"PAYLOAD","FILE":"3189402","REV_AT_EPOCH":"2496","RA_OF_ASC_NODE":"92.7481","TLE_LINE2":"2 48556  53.0565  92.7481 0001848  87.3010 272.8191 15.06405436 24960","MEAN_MOTION_DDOT":"0.0000000000000","OBJECT_ID":"2021-041D","DECAY_DATE":null,"ECCENTRICITY":"0.00018480","EPHEMERIS_TYPE":"0","MEAN_MOTION_DOT":"0.00001989"},{"GP_ID":"188369191","TLE_LINE1":"1 48557U 21041E   21301.71893482  .00001224  00000-0  10104-3 0  9994","FILE":"3189402","REF_FRAME":"TEME","OBJECT_TYPE":"PAYLOAD","CLASSIFICATION_TYPE":"U","ARG_OF_PERICENTER":"80.0860","SITE":"AFETR","MEAN_ELEMENT_THEORY":"SGP4","EPHEMERIS_TYPE":"0","MEAN_MOTION_DOT":"0.00001224","OBJECT_ID":"2021-041E","TLE_LINE2":"2 48557  53.0563  82.7494 0001317  80.0860 280.0277 15.06413470 25106","MEAN_MOTION_DDOT":"0.0000000000000","RA_OF_ASC_NODE":"82.7494","REV_AT_EPOCH":"2510","ECCENTRICITY":"0.00013170","DECAY_DATE":null,"RCS_SIZE":"LARGE","CENTER_NAME":"EARTH","PERIAPSIS":"546.260","APOAPSIS":"548.084","INCLINATION":"53.0563","MEAN_MOTION":"15.06413470","TIME_SYSTEM":"UTC","NORAD_CAT_ID":"48557","OBJECT_NAME":"STARLINK-2155","COUNTRY_CODE":"US","ELEMENT_SET_NO":"999","MEAN_ANOMALY":"280.0277","LAUNCH_DATE":"2021-05-15","BSTAR":"0.00010104000000","SEMIMAJOR_AXIS":"6925.307","EPOCH":"2021-10-28T17:15:15.968448","PERIOD":"95.591"},{"SITE":"AFETR","MEAN_ELEMENT_THEORY":"SGP4","ARG_OF_PERICENTER":"88.8355","FILE":"3189402","CLASSIFICATION_TYPE":"U","OBJECT_TYPE":"PAYLOAD","REF_FRAME":"TEME","GP_ID":"188368733","TLE_LINE1":"1 48558U 21041F   21301.71524696  .00000300  00000-0  39071-4 0  9992","DECAY_DATE":null,"ECCENTRICITY":"0.00014680","TLE_LINE2":"2 48558  53.0566  82.7617 0001468  88.8355 271.2802 15.06393785 24245","RA_OF_ASC_NODE":"82.7617","MEAN_MOTION_DDOT":"0.0000000000000","OBJECT_ID":"2021-041F","REV_AT_EPOCH":"2424","MEAN_MOTION_DOT":"0.00000300","EPHEMERIS_TYPE":"0","ELEMENT_SET_NO":"999","COUNTRY_CODE":"US","OBJECT_NAME":"STARLINK-2166","NORAD_CAT_ID":"48558","MEAN_MOTION":"15.06393785","TIME_SYSTEM":"UTC","PERIAPSIS":"546.216","CENTER_NAME":"EARTH","RCS_SIZE":"LARGE","INCLINATION":"53.0566","APOAPSIS":"548.249","SEMIMAJOR_AXIS":"6925.368","EPOCH":"2021-10-28T17:09:57.337344","PERIOD":"95.593","BSTAR":"0.00003907100000","LAUNCH_DATE":"2021-05-15","MEAN_ANOMALY":"271.2802"}];
